*******************************************************************************
JPL/HORIZONS             30698 Hippokoon (2299 T-3)        2013-Sep-09 10:28:49
Rec #: 30698 (+COV)   Soln.date: 2013-Aug-26_22:33:07    # obs: 417 (1977-2013)
 
FK5/J2000.0 helio. ecliptic osc. elements (au, days, deg., period=Julian yrs): 
 
  EPOCH=  2454160.5 ! 2007-Mar-01.00 (CT)          Residual RMS= .47543        
   EC= .0638072012550652   QR= 4.875119395809988   TP= 2455831.5358050261      
   OM= 216.2459795058031   W=  100.2948283724844   IN= 7.862129306065635       
   A= 5.207388266974068    MA= 221.4010662871463   ADIST= 5.539657138138147    
   PER= 11.88333           N= .082941927           ANGMOM= .039174687          
   DAN= 5.24601            DDN= 5.12771            L= 316.6363785              
   B= 7.7347772            MOID= 3.87428999        TP= 2011-Sep-27.0358050261  
 
Asteroid physical parameters (km, seconds, rotational period in hours):        
   GM= n.a.                RAD= n.a.               ROTPER= n.a.                
   H= 11.6                 G= .150                 B-V= n.a.                   
                           ALBEDO= n.a.            STYP= n.a.                  
 
ASTEROID comments: 
1: soln ref.= JPL#2, OCC=0
2: source=ORB
*******************************************************************************
 

 

*******************************************************************************
Ephemeris / WWW_USER Mon Sep  9 10:28:49 2013 Pasadena, USA      / Horizons    
*******************************************************************************
Target body name: 30698 Hippokoon (2299 T-3)      {source: JPL#2}
Center body name: Earth (399)                     {source: DE-0431LE-0431}
Center-site name: San Pedro Martir
*******************************************************************************
Start time      : A.D. 2013-Jan-01 00:00:00.0000 UT      
Stop  time      : A.D. 2013-Dec-31 00:00:00.0000 UT      
Step-size       : 1440 minutes
*******************************************************************************
Target pole/equ : No model available
Target radii    : (unavailable)                                                
Center geodetic : 244.536700,31.0434585,2.8281109 {E-lon(deg),Lat(deg),Alt(km)}
Center cylindric: 244.536700,5471.93108,3271.4810 {E-lon(deg),Dxy(km),Dz(km)}
Center pole/equ : High-precision EOP model        {East-longitude +}
Center radii    : 6378.1 x 6378.1 x 6356.8 km     {Equator, meridian, pole}    
Target primary  : Sun
Vis. interferer : MOON (R_eq= 1737.400) km        {source: DE-0431LE-0431}
Rel. light bend : Sun, EARTH                      {source: DE-0431LE-0431}
Rel. lght bnd GM: 1.3271E+11, 3.9860E+05 km^3/s^2                              
Small-body perts: Yes                             {source: SB431-BIG16}
Atmos refraction: NO (AIRLESS)
RA format       : DEG
Time format     : BOTH
EOP file        : eop.130906.p131128                                           
EOP coverage    : DATA-BASED 1962-JAN-20 TO 2013-SEP-06. PREDICTS-> 2013-NOV-27
Units conversion: 1 au= 149597870.700 km, c= 299792.458 km/s, 1 day= 86400.0 s 
Table cut-offs 1: Elevation (-90.0deg=NO ),Airmass (>38.000=NO), Daylight (NO )
Table cut-offs 2: Solar Elongation (  0.0,180.0=NO ),Local Hour Angle( 0.0=NO )
*******************************************************************************
Initial FK5/J2000.0 heliocentric ecliptic osculating elements (au, days, deg.):
  EPOCH=  2454160.5 ! 2007-Mar-01.00 (CT)          Residual RMS= .47543        
   EC= .0638072012550652   QR= 4.875119395809988   TP= 2455831.5358050261      
   OM= 216.2459795058031   W=  100.2948283724844   IN= 7.862129306065635       
Asteroid physical parameters (km, seconds, rotational period in hours):        
   GM= n.a.                RAD= n.a.               ROTPER= n.a.                
   H= 11.6                 G= .150                 B-V= n.a.                   
                           ALBEDO= n.a.            STYP= n.a.                  
*******************************************************************************************************************************************************************
 Date__(UT)__HR:MN Date_________JDUT     R.A._(J2000.0)_DEC. dRA*cosD d(DEC)/dt  APmag            delta      deldot    S-O-T /r    S-T-O      phi  PAB-LON  PAB-LAT
*******************************************************************************************************************************************************************
$$SOE
 2013-Sep-22 00:00 2456557.500000000 *    27.19361  13.36724 -13.0280  -6.69231  18.67 4.15082566140649 -13.0056735 148.8818 /L   5.9166   5.9118  27.0610   1.8454
 2013-Sep-23 00:00 2456558.500000000 *    27.10069  13.32158 -13.3586  -6.84537  18.66 4.14357851733510 -12.5738686 149.9586 /L   5.7289   5.7240  27.0544   1.8340
 2013-Sep-24 00:00 2456559.500000000 *    27.00559  13.27491 -13.6808  -6.99557  18.64 4.13658587890730 -12.1357273 151.0383 /L   5.5388   5.5339  27.0466   1.8225
 2013-Sep-25 00:00 2456560.500000000 *    26.90837  13.22723 -13.9942  -7.14275  18.63 4.12985135292668 -11.6912902 152.1208 /L   5.3465   5.3415  27.0377   1.8109
 2013-Sep-26 00:00 2456561.500000000 *    26.80908  13.17858 -14.2983  -7.28674  18.62 4.12337851168347 -11.2406297 153.2060 /L   5.1519   5.1469  27.0276   1.7993
 2013-Sep-27 00:00 2456562.500000000 *    26.70781  13.12896 -14.5927  -7.42735  18.60 4.11717087629640 -10.7838440 154.2938 /L   4.9552   4.9502  27.0164   1.7876
 2013-Sep-28 00:00 2456563.500000000 *    26.60462  13.07841 -14.8770  -7.56443  18.59 4.11123190343333 -10.3210516 155.3842 /L   4.7565   4.7514  27.0042   1.7758
 2013-Sep-29 00:00 2456564.500000000 *    26.49958  13.02695 -15.1509  -7.69779  18.58 4.10556497480235  -9.8523875 156.4770 /L   4.5558   4.5507  26.9909   1.7639
 2013-Sep-30 00:00 2456565.500000000 *    26.39277  12.97460 -15.4140  -7.82725  18.56 4.10017338815702  -9.3780018 157.5721 /L   4.3532   4.3480  26.9767   1.7519
 2013-Oct-01 00:00 2456566.500000000 *    26.28426  12.92139 -15.6657  -7.95264  18.55 4.09506034822769  -8.8980615 158.6694 /L   4.1488   4.1436  26.9615   1.7399
 2013-Oct-02 00:00 2456567.500000000 *    26.17414  12.86735 -15.9058  -8.07378  18.53 4.09022895589798  -8.4127547 159.7688 /L   3.9427   3.9375  26.9454   1.7278
 2013-Oct-03 00:00 2456568.500000000 *    26.06249  12.81251 -16.1338  -8.19049  18.52 4.08568219409165  -7.9222976 160.8701 /L   3.7350   3.7297  26.9285   1.7156
 2013-Oct-04 00:00 2456569.500000000 *m   25.94939  12.75690 -16.3494  -8.30257  18.51 4.08142290938664  -7.4269421 161.9731 /L   3.5258   3.5204  26.9107   1.7033
 2013-Oct-05 00:00 2456570.500000000 *m   25.83494  12.70056 -16.5521  -8.40986  18.49 4.07745378941052  -6.9269822 163.0777 /L   3.3152   3.3098  26.8922   1.6910
 2013-Oct-06 00:00 2456571.500000000 *m   25.71922  12.64350 -16.7416  -8.51218  18.48 4.07377733759964  -6.4227565 164.1836 /L   3.1033   3.0978  26.8729   1.6785
 2013-Oct-07 00:00 2456572.500000000 *m   25.60233  12.58578 -16.9176  -8.60938  18.46 4.07039584850400  -5.9146433 165.2904 /L   2.8902   2.8847  26.8529   1.6661
 2013-Oct-08 00:00 2456573.500000000 *m   25.48436  12.52742 -17.0799  -8.70131  18.45 4.06731138784648  -5.4030490 166.3980 /L   2.6761   2.6706  26.8324   1.6535
 2013-Oct-09 00:00 2456574.500000000 *m   25.36541  12.46845 -17.2283  -8.78788  18.43 4.06452578130879  -4.8883904 167.5058 /L   2.4612   2.4557  26.8112   1.6409
 2013-Oct-10 00:00 2456575.500000000 *m   25.24557  12.40893 -17.3627  -8.86899  18.41 4.06204061441333  -4.3710744 168.6134 /L   2.2455   2.2400  26.7895   1.6281
 2013-Oct-11 00:00 2456576.500000000 *m   25.12494  12.34887 -17.4833  -8.94457  18.40 4.05985724354145  -3.8514803 169.7201 /L   2.0294   2.0239  26.7674   1.6154
 2013-Oct-12 00:00 2456577.500000000 *m   25.00362  12.28833 -17.5899  -9.01459  18.38 4.05797681609060  -3.3299463 170.8249 /L   1.8132   1.8077  26.7448   1.6025
 2013-Oct-13 00:00 2456578.500000000 *m   24.88171  12.22733 -17.6827  -9.07901  18.36 4.05640029675128  -2.8067617 171.9263 /L   1.5970   1.5916  26.7219   1.5896
 2013-Oct-14 00:00 2456579.500000000 *m   24.75929  12.16592 -17.7619  -9.13780  18.34 4.05512849683674  -2.2821642 173.0220 /L   1.3816   1.3761  26.6986   1.5766
 2013-Oct-15 00:00 2456580.500000000 *m   24.63646  12.10414 -17.8276  -9.19096  18.32 4.05416210398774  -1.7563410 174.1083 /L   1.1677   1.1623  26.6750   1.5635
 2013-Oct-16 00:00 2456581.500000000 *m   24.51332  12.04201 -17.8798  -9.23844  18.30 4.05350170983558  -1.2294348 175.1779 /L   0.9567   0.9515  26.6512   1.5504
 2013-Oct-17 00:00 2456582.500000000 *m   24.38995  11.97959 -17.9186  -9.28024  18.28 4.05314783321207  -0.7015534 176.2156 /L   0.7518   0.7467  26.6272   1.5372
 2013-Oct-18 00:00 2456583.500000000 *    24.26645  11.91690 -17.9442  -9.31631  18.26 4.05310093656134  -0.1727834 177.1850 /L   0.5599   0.5554  26.6031   1.5240
 2013-Oct-19 00:00 2456584.500000000 *    24.14291  11.85399 -17.9564  -9.34662  18.24 4.05336143378944   0.3567943 177.9833 /L   0.4009   0.3977  26.5789   1.5107
 2013-Oct-20 00:00 2456585.500000000 *    24.01942  11.79090 -17.9553  -9.37110  18.23 4.05392968906814   0.8870892 178.3404 /T   0.3269   0.3269  26.5547   1.4973
 2013-Oct-21 00:00 2456586.500000000 *    23.89607  11.72766 -17.9408  -9.38970  18.24 4.05480600776172   1.4179894 178.0025 /T   0.3900   0.3932  26.5305   1.4839
 2013-Oct-22 00:00 2456587.500000000 *    23.77296  11.66432 -17.9128  -9.40235  18.26 4.05599062203299   1.9493553 177.2112 /T   0.5443   0.5489  26.5064   1.4704
 2013-Oct-23 00:00 2456588.500000000 *    23.65017  11.60092 -17.8711  -9.40901  18.29 4.05748367426480   2.4810184 176.2425 /T   0.7341   0.7393  26.4823   1.4569
 2013-Oct-24 00:00 2456589.500000000 *    23.52780  11.53749 -17.8158  -9.40960  18.31 4.05928520109891   3.0127840 175.2024 /T   0.9379   0.9433  26.4585   1.4433
